ERS-1                   
1 21574U 91050A   26114.01791933  .00000205  00000+0  80098-4 0  9996
2 21574  98.7837 133.3851 0033027  68.8139 291.6572 14.39481692822255
ARIANE 40 R/B           
1 21610U 91050F   26114.09980751  .00000171  00000+0  63536-4 0  9993
2 21610  98.1925 164.6113 0001891 310.8203  49.2823 14.42923775825540
INTERCOSMOS 25          
1 21819U 91086A   26113.97191512  .00000483  00000+0  90496-4 0  9999
2 21819  82.5991 282.6202 1485734  19.3427 345.8366 12.12126509502176
SL-8 R/B                
1 21876U 92008B   26113.57816709  .00000046  00000+0  31548-4 0  9993
2 21876  82.9276 234.3847 0034735  11.5735 359.8536 13.75970382715596
SL-8 R/B                
1 21938U 92020B   26114.15664853 -.00000040  00000+0 -56988-4 0  9993
2 21938  82.9269 119.9929 0029285 168.0964 265.0385 13.75548673707384
USA 81                  
1 21949U 92023A   26113.99623220  .00000141  00000+0  44624-4 0  9996
2 21949  85.0035 105.2862 0001282 100.7424 259.3913 14.32381781101274
COSMOS 2219             
1 22219U 92076A   26113.93486970  .00000363  00000+0  21524-3 0  9997
2 22219  71.0592 283.4843 0016940 135.5391 224.7095 14.14094274724773
SL-16 R/B               
1 22220U 92076B   26114.16604490 -.00000228  00000+0 -89505-4 0  9990
2 22220  70.9982  92.5778 0011968  15.3516  62.9490 14.16865872728273
COSMOS 2221             
1 22236U 92080A   26113.57631452  .00001304  00000+0  11261-3 0  9991
2 22236  82.5043 236.0737 0015165  46.5379 313.7101 14.96380019787503
SL-16 R/B               
1 22285U 92093B   26113.89758625  .00000317  00000+0  18653-3 0  9991
2 22285  71.0206 269.3595 0006179 247.5610 112.4859 14.15456154719557
COSMOS 2228             
1 22286U 92094A   26114.16387215  .00001534  00000+0  12921-3 0  9991
2 22286  82.5204 193.7764 0018941 145.4246 214.8212 14.97403875782868
SL-16 R/B               
1 22566U 93016B   26114.15457808 -.00000278  00000+0 -11791-3 0  9992
2 22566  71.0038 119.6941 0012617 256.8551 103.1164 14.15310308708605
